FACSAT-1                
1 43721U 18096C   22212.85245602  .00010455  00000+0  28417-3 0  9991
2 43721  97.3506 292.6676 0011853 250.7987 246.5245 15.37674228204798
CENTAURI-2              
1 43722U 18096D   22212.66062382  .00012099  00000+0  29082-3 0  9998
2 43722  97.3546 294.7104 0011139 245.8042 114.2041 15.41409199204889
INNOSAT-2               
1 43738U 18096V   22212.81252557  .00033207  00000+0  52641-3 0  9998
2 43738  97.3637 302.6958 0012211 231.6373 280.3673 15.53246543205382
SIRION PATHFINDER-2     
1 43759U 18099B   22212.83998849  .00000428  00000+0  42644-4 0  9999
2 43759  97.6179 278.4468 0015225 110.9353 249.3499 14.96485025199682
CORVUS BC4              
1 43767U 18099K   22212.81214709  .00000597  00000+0  58315-4 0  9991
2 43767  97.6140 276.8620 0012962 115.2597 244.9969 14.95888545199602
MOVE-II                 
1 43780U 18099Y   22212.63987051  .00001350  00000+0  11895-3 0  9992
2 43780  97.6215 279.0754 0013692 121.0485 239.2083 14.98015959199670
SPACEBEE-7              
1 43816U 18099BL  22212.63010142  .00000740  00000+0  67698-4 0  9995
2 43816  97.6247 279.7952 0014200 104.2194 256.0606 14.97878118199264
SPACEBEE-5              
1 43817U 18099BM  22212.65006986  .00003409  00000+0  26579-3 0  9996
2 43817  97.6353 282.9877 0009505 111.2600 248.9640 15.01806580199401
SPACEBEE-6              
1 43818U 18099BN  22212.82214594  .00001906  00000+0  16177-3 0  9995
2 43818  97.6306 280.9436 0014642 100.4722 259.8152 14.99017521199484
SHIELDS 1               
1 43850U 18104B   22212.70351922  .00001785  00000+0  72131-4 0  9990
2 43850  85.0280  22.8442 0016240 100.9421 259.3649 15.23839067201248
STF-1                   
1 43852U 18104D   22212.50333645  .00004630  00000+0  17088-3 0  9993
2 43852  85.0306  23.1610 0014597 112.1607 248.1188 15.27369199201268
ZACUBE-2                
1 43907U 18111AH  22212.91853220  .00003953  00000+0  14507-3 0  9993
2 43907  97.1858  97.6432 0017766 283.2043 205.3960 15.28376077200084
LUME 1                  
1 43908U 18111AJ  22212.63499766  .00004055  00000+0  13693-3 0  9993
2 43908  97.1854  99.0618 0016175 276.8642  83.0760 15.31106344200158
AOBA VELOX-IV           
1 43940U 19003J   22212.51948569  .00013283  00000+0  33745-3 0  9990
2 43940  97.1220 247.1202 0015607 352.0006   8.0989 15.39631839196903
MOVE-IIB                
1 44398U 19038N   22212.88993440  .00006071  00000+0  28832-3 0  9992
2 44398  97.6393 182.6636 0019558 338.8802  21.1621 15.19450470169789
SONATE                  
1 44400U 19038Q   22212.84720877  .00002241  00000+0  12310-3 0  9993
2 44400  97.6460 181.5622 0022602 343.9521  16.0994 15.14976261169658
LUCKY-7                 
1 44406U 19038W   22212.88399404  .00002466  00000+0  13146-3 0  9998
2 44406  97.6413 182.1577 0021820 342.0815  17.9645 15.15962436169692
BEESAT 9                
1 44412U 19038AC  22212.64113653  .00003434  00000+0  17437-3 0  9992
2 44412  97.6382 182.2716 0019404 347.2473  12.8267 15.17445305169396
JAISAT-1                
1 44419U 19038F   22212.67897482  .00003599  00000+0  18019-3 0  9990
2 44419  97.6383 183.1816 0018309 344.4922  15.5748 15.17918876169769
DUCHIFAT-3              
1 44854U 19089C   22212.67131186  .00001486  00000+0  11929-3 0  9997
2 44854  36.9658 198.1552 0008534 229.1752 130.8257 15.01318305144588
EYESAT-NANO             
1 44877U 19092E   22212.47139382  .00004432  00000+0  18984-3 0  9992
2 44877  97.4640  36.5523 0010868 194.5844 165.5081 15.23254412145065
ORBITAL FACTORY 2 (OF-2)
1 45113U 19071C   22212.50618109  .00013168  00000+0  26088-3 0  9996
2 45113  51.6362 202.2943 0009748 343.9263  16.1414 15.47353179140196
M2 PATHFINDER           
1 45727U 20037E   22212.74773049 -.00000051  00000+0  45585-6 0  9996
2 45727  97.7354  27.4065 0011312 248.5766 111.4259 14.92117593113439
NETSAT-4                
1 46504U 20068U   22212.56634409  .00001396  00000+0  10648-3 0  9991
2 46504  97.7280 152.2797 0012502 170.2286 189.9164 15.03635164100679
NETSAT-3                
1 46505U 20068V   22212.58297893  .00001907  00000+0  14396-3 0  9998
2 46505  97.7259 152.2125 0010755 179.5660 180.5611 15.03580598100682
NETSAT-1                
1 46506U 20068W   22212.60093767  .00000390  00000+0  33144-4 0  9994
2 46506  97.7276 152.1576 0007801 186.8637 173.2423 15.03515698100683
NETSAT-2                
1 46507U 20068X   22212.81067632  .00000848  00000+0  66712-4 0  9995
2 46507  97.7286 152.3592 0007636 188.2939 171.8153 15.03505532100660
SAI-1 NANOCONNECT-2     
1 47701U 21015C   22212.64723653  .00004248  00000+0  15755-3 0  9996
2 47701  97.4218 289.3825 0009492 301.1110  58.9198 15.28117617 78969
BEESAT-6                
1 47957U 21022AB  22212.96474714  .00003272  00000+0  20949-3 0  9990
2 47957  97.5265 111.7067 0020681   0.0719  55.4106 15.09095033 74518
SMOG-1                  
1 47964U 21022AJ  22212.69882202  .00002353  00000+0  14618-3 0  9998
2 47964  97.5256 112.5756 0017982 350.2474   9.8404 15.10520236 73566
MMSATS-1                
1 47976U 98067SJ  22212.80436043  .00014433  00000+0  17515-3 0  9996
2 47976  51.6403 101.9105 0002263 136.9068 335.0843 15.60871923 77188
BCCSAT-1                
1 48041U 21022AK  22212.44409354  .00002233  00000+0  14246-3 0  9995
2 48041  97.5264 111.8935 0014635 350.8395   9.2565 15.09635505 73479
BEESAT-5                
1 48083U 21022AM  22212.17606661  .00003505  00000+0  22307-3 0  9991
2 48083  97.5235 110.9369 0020659   2.5788 154.0932 15.09259262 73529
BEESAT-7                
1 48084U 21022AN  22212.95853100  .00003298  00000+0  21070-3 0  9995
2 48084  97.5240 111.7092 0020752 359.6536  55.5658 15.09161999 73236
BEESAT-8                
1 48085U 21022AP  22212.96119390  .00003074  00000+0  19717-3 0  9990
2 48085  97.5242 111.7077 0020479   0.1026  55.2038 15.09077360 73798
RAMSAT                  
1 48850U 98067SL  22212.73230251  .00057509  00000+0  34312-3 0  9998
2 48850  51.6352  90.3573 0002532 194.0836 166.0094 15.77329712 64302
BD-28                   
1 48867U 98067SN  22212.82052099  .00125158  00000+0  52034-3 0  9995
2 48867  51.6264  85.5738 0002449 211.9301 148.1555 15.84855296 63125
BINAR-1                 
1 49272U 98067SR  22212.80030539  .00087412  00000+0  49092-3 0  9999
2 49272  51.6314  93.7651 0004035 138.5063 221.6245 15.78512100 46658
MAYA-3                  
1 49273U 98067SS  22212.69650715  .01249556  11472-2  86138-3 0  9991
2 49273  51.6195  83.8719 0010309 251.0946 108.8954 16.15965826 46778
MAYA-4                  
1 49274U 98067ST  22212.65735576  .00672451  24167-3  80472-3 0  9991
2 49274  51.6232  85.1533 0007816 242.3290 117.6930 16.07695113 46754
CUAVA-1                 
1 49275U 98067SU  22212.92462628  .00203123  00000+0  65614-3 0  9990
2 49275  51.6301  88.2704 0004850 187.0711 291.5154 15.89745294 46681
